$$SOE
2460728.500000000, A.D. 2025-Feb-22 00:00:00.0000, -4.344393140299733E+08, -3.603454843273915E+07, -8.511750898492740E+07,
2460735.500000000, A.D. 2025-Mar-01 00:00:00.0000, -4.345876814025640E+08, -4.554169901486413E+07, -8.422800581262614E+07,
2460742.500000000, A.D. 2025-Mar-08 00:00:00.0000, -4.344966361400959E+08, -5.502381587743515E+07, -8.329210223341486E+07,
2460749.500000000, A.D. 2025-Mar-15 00:00:00.0000, -4.341675196379424E+08, -6.447583774822746E+07, -8.231056241491346E+07,
2460756.500000000, A.D. 2025-Mar-22 00:00:00.0000, -4.336017269163286E+08, -7.389276277224386E+07, -8.128415502577548E+07,
2460763.500000000, A.D. 2025-Mar-29 00:00:00.0000, -4.328007060544186E+08, -8.326964798698720E+07, -8.021365324010408E+07,
2460770.500000000, A.D. 2025-Apr-05 00:00:00.0000, -4.317659560890092E+08, -9.260160794569194E+07, -7.909983485225874E+07,
2460777.500000000, A.D. 2025-Apr-12 00:00:00.0000, -4.304990252934452E+08, -1.018838123870118E+08, -7.794348231390296E+07,
2460784.500000000, A.D. 2025-Apr-19 00:00:00.0000, -4.290015100165323E+08, -1.111114838373698E+08, -7.674538274685231E+07,
2460791.500000000, A.D. 2025-Apr-26 00:00:00.0000, -4.272750538061289E+08, -1.202798953535105E+08, -7.550632797350480E+07,
2460798.500000000, A.D. 2025-May-03 00:00:00.0000, -4.253213467020017E+08, -1.293843683887236E+08, -7.422711457441030E+07,
2460805.500000000, A.D. 2025-May-10 00:00:00.0000, -4.231421246678259E+08, -1.384202707750517E+08, -7.290854397525424E+07,
2460812.500000000, A.D. 2025-May-17 00:00:00.0000, -4.207391691235144E+08, -1.473830148625631E+08, -7.155142256977424E+07,
2460819.500000000, A.D. 2025-May-24 00:00:00.0000, -4.181143064012013E+08, -1.562680558699121E+08, -7.015656189833115E+07,
2460826.500000000, A.D. 2025-May-31 00:00:00.0000, -4.152694067038161E+08, -1.650708901350106E+08, -6.872477889405163E+07,
2460833.500000000, A.D. 2025-Jun-07 00:00:00.0000, -4.122063829634137E+08, -1.737870520610290E+08, -6.725689606015006E+07,
2460840.500000000, A.D. 2025-Jun-14 00:00:00.0000, -4.089271919599830E+08, -1.824121104253839E+08, -6.575374141503406E+07,
2460847.500000000, A.D. 2025-Jun-21 00:00:00.0000, -4.054338364817902E+08, -1.909416673248191E+08, -6.421614858372229E+07,
2460854.500000000, A.D. 2025-Jun-28 00:00:00.0000, -4.017283653982180E+08, -1.993713579928514E+08, -6.264495717795037E+07,
2460861.500000000, A.D. 2025-Jul-05 00:00:00.0000, -3.978128731596856E+08, -2.076968493328390E+08, -6.104101314865567E+07,
2460868.500000000, A.D. 2025-Jul-12 00:00:00.0000, -3.936894999124972E+08, -2.159138379723812E+08, -5.940516906636661E+07,
2460875.500000000, A.D. 2025-Jul-19 00:00:00.0000, -3.893604320367723E+08, -2.240180484157286E+08, -5.773828439334720E+07,
2460882.500000000, A.D. 2025-Jul-26 00:00:00.0000, -3.848279028966358E+08, -2.320052313526742E+08, -5.604122577119906E+07,
2460889.500000000, A.D. 2025-Aug-02 00:00:00.0000, -3.800941937370157E+08, -2.398711621037468E+08, -5.431486732792340E+07,
2460896.500000000, A.D. 2025-Aug-09 00:00:00.0000, -3.751616347033071E+08, -2.476116392174904E+08, -5.256009100737968E+07,
2460903.500000000, A.D. 2025-Aug-16 00:00:00.0000, -3.700326059065644E+08, -2.552224832842576E+08, -5.077778693288064E+07,
2460910.500000000, A.D. 2025-Aug-23 00:00:00.0000, -3.647095382413102E+08, -2.626995359514201E+08, -4.896885382991675E+07,
2460917.500000000, A.D. 2025-Aug-30 00:00:00.0000, -3.591949136268200E+08, -2.700386584274145E+08, -4.713419947930311E+07,
2460924.500000000, A.D. 2025-Sep-06 00:00:00.0000, -3.534912660894892E+08, -2.772357284758801E+08, -4.527474098835395E+07,
2460931.500000000, A.D. 2025-Sep-13 00:00:00.0000, -3.476011853565057E+08, -2.842866383852193E+08, -4.339140492936413E+07,
2460938.500000000, A.D. 2025-Sep-20 00:00:00.0000, -3.415273196886290E+08, -2.911872955617182E+08, -4.148512777998258E+07,
2460945.500000000, A.D. 2025-Sep-27 00:00:00.0000, -3.352723768955378E+08, -2.979336226377500E+08, -3.955685650810845E+07,
2460952.500000000, A.D. 2025-Oct-04 00:00:00.0000, -3.288391255513975E+08, -3.045215565578570E+08, -3.760754907173766E+07,
2460959.500000000, A.D. 2025-Oct-11 00:00:00.0000, -3.222303967843184E+08, -3.109470475881192E+08, -3.563817487606773E+07,
2460966.500000000, A.D. 2025-Oct-18 00:00:00.0000, -3.154490863561849E+08, -3.172060585268578E+08, -3.364971523615001E+07,
2460973.500000000, A.D. 2025-Oct-25 00:00:00.0000, -3.084981568943731E+08, -3.232945641102946E+08, -3.164316385710715E+07,
2460980.500000000, A.D. 2025-Nov-01 00:00:00.0000, -3.013806402378053E+08, -3.292085506025892E+08, -2.961952733441968E+07,
2460987.500000000, A.D. 2025-Nov-08 00:00:00.0000, -2.940996398649691E+08, -3.349440156065509E+08, -2.757982568007548E+07,
2460994.500000000, A.D. 2025-Nov-15 00:00:00.0000, -2.866583332583071E+08, -3.404969681585662E+08, -2.552509289288960E+07,
2461001.500000000, A.D. 2025-Nov-22 00:00:00.0000, -2.790599738046809E+08, -3.458634288926188E+08, -2.345637759177636E+07,
2461008.500000000, A.D. 2025-Nov-29 00:00:00.0000, -2.713078923872890E+08, -3.510394291427916E+08, -2.137474360477626E+07,
2461015.500000000, A.D. 2025-Dec-06 00:00:00.0000, -2.634055009473377E+08, -3.560210091238981E+08, -1.928127031547302E+07,
2461022.500000000, A.D. 2025-Dec-13 00:00:00.0000, -2.553562975812072E+08, -3.608042185652641E+08, -1.717705308151363E+07,
2461029.500000000, A.D. 2025-Dec-20 00:00:00.0000, -2.471638696794776E+08, -3.653851187817667E+08, -1.506320396174064E+07,
2461036.500000000, A.D. 2025-Dec-27 00:00:00.0000, -2.388318961817423E+08, -3.697597835995626E+08, -1.294085244143106E+07,
2461043.500000000, A.D. 2026-Jan-03 00:00:00.0000, -2.303641504070976E+08, -3.739242997616498E+08, -1.081114607182813E+07,
2461050.500000000, A.D. 2026-Jan-10 00:00:00.0000, -2.217645033520499E+08, -3.778747675022760E+08, -8.675251089087129E+06,
2461057.500000000, A.D. 2026-Jan-17 00:00:00.0000, -2.130369272250683E+08, -3.816073013919699E+08, -6.534353040765673E+06,
2461064.500000000, A.D. 2026-Jan-24 00:00:00.0000, -2.041854991413602E+08, -3.851180314409798E+08, -4.389657424171001E+06,
2461071.500000000, A.D. 2026-Jan-31 00:00:00.0000, -1.952144049555093E+08, -3.884031044793298E+08, -2.242390338036984E+06,
2461078.500000000, A.D. 2026-Feb-07 00:00:00.0000, -1.861279431708807E+08, -3.914586858819898E+08, -9.379915631699562E+04,
2461085.500000000, A.D. 2026-Feb-14 00:00:00.0000, -1.769305286723089E+08, -3.942809616662201E+08, 2.054846753147662E+06,
2461092.500000000, A.D. 2026-Feb-21 00:00:00.0000, -1.676266958933691E+08, -3.968661403967441E+08, 4.202255278529584E+06,
2461099.500000000, A.D. 2026-Feb-28 00:00:00.0000, -1.582211025011467E+08, -3.992104537586141E+08, 6.347110978211582E+06,
2461106.500000000, A.D. 2026-Mar-07 00:00:00.0000, -1.487185356537515E+08, -4.013101577618899E+08, 8.488074690730989E+06,
2461113.500000000, A.D. 2026-Mar-14 00:00:00.0000, -1.391239180506060E+08, -4.031615369275957E+08, 1.062378289738208E+07,
2461120.500000000, A.D. 2026-Mar-21 00:00:00.0000, -1.294423119887092E+08, -4.047609085761740E+08, 1.275284691339254E+07,
2461127.500000000, A.D. 2026-Mar-28 00:00:00.0000, -1.196789234299860E+08, -4.061046262091539E+08, 1.487385217913699E+07,
2461134.500000000, A.D. 2026-Apr-04 00:00:00.0000, -1.098391066777634E+08, -4.071890829690514E+08, 1.698535763127053E+07,
2461141.500000000, A.D. 2026-Apr-11 00:00:00.0000, -9.992836938114037E+07, -4.080107155574387E+08, 1.908589510294314E+07,
2461148.500000000, A.D. 2026-Apr-18 00:00:00.0000, -8.995237769865994E+07, -4.085660086388909E+08, 2.117396874188839E+07,
2461155.500000000, A.D. 2026-Apr-25 00:00:00.0000, -7.991696156406419E+07, -4.088514997388672E+08, 2.324805444770791E+07,
2461162.500000000, A.D. 2026-May-02 00:00:00.0000, -6.982812001047182E+07, -4.088637846899092E+08, 2.530659932804099E+07,
2461169.500000000, A.D. 2026-May-09 00:00:00.0000, -5.969202641405609E+07, -4.085995237185152E+08, 2.734802116238877E+07,
2461176.500000000, A.D. 2026-May-16 00:00:00.0000, -4.951503326323138E+07, -4.080554480612061E+08, 2.937070785644573E+07,
2461183.500000000, A.D. 2026-May-23 00:00:00.0000, -3.930367638338560E+07, -4.072283661147134E+08, 3.137301697247188E+07,
2461190.500000000, A.D. 2026-May-30 00:00:00.0000, -2.906468067496445E+07, -4.061151688277452E+08, 3.335327555956128E+07,
2461197.500000000, A.D. 2026-Jun-06 00:00:00.0000, -1.880496765802361E+07, -4.047128376347607E+08, 3.530978005275470E+07,
2461204.500000000, A.D. 2026-Jun-13 00:00:00.0000, -8.531661129596310E+06, -4.030184547616968E+08, 3.724079592910834E+07,
2461211.500000000, A.D. 2026-Jun-20 00:00:00.0000, 1.747908595342780E+06, -4.010292130077103E+08, 3.914455741482465E+07,
2461218.500000000, A.D. 2026-Jun-27 00:00:00.0000, 1.202620019475450E+07, -3.987424253719229E+08, 4.101926738102755E+07,
2461225.500000000, A.D. 2026-Jul-04 00:00:00.0000, 2.229545664077438E+07, -3.961555353283792E+08, 4.286309737498809E+07,
2461232.500000000, A.D. 2026-Jul-11 00:00:00.0000, 3.254770058906061E+07, -3.932661279093914E+08, 4.467418776363923E+07,
2461239.500000000, A.D. 2026-Jul-18 00:00:00.0000, 4.277472999815395E+07, -3.900719415999002E+08, 4.645064799486060E+07,
2461246.500000000, A.D. 2026-Jul-25 00:00:00.0000, 5.296811405802464E+07, -3.865708810688201E+08, 4.819055698769224E+07,
2461253.500000000, A.D. 2026-Aug-01 00:00:00.0000, 6.311918953564763E+07, -3.827610308146012E+08, 4.989196365802468E+07,
2461260.500000000, A.D. 2026-Aug-08 00:00:00.0000, 7.321905781609190E+07, -3.786406697890920E+08, 5.155288757373977E+07,
2461267.500000000, A.D. 2026-Aug-15 00:00:00.0000, 8.325858312137167E+07, -3.742082865737064E+08, 5.317131975557330E+07,
2461274.500000000, A.D. 2026-Aug-22 00:00:00.0000, 9.322839121829255E+07, -3.694625939043519E+08, 5.474522381070703E+07,
2461281.500000000, A.D. 2026-Aug-29 00:00:00.0000, 1.031188664064135E+08, -3.644025439273596E+08, 5.627253751346476E+07,
2461288.500000000, A.D. 2026-Sep-05 00:00:00.0000, 1.129201490112012E+08, -3.590273470582954E+08, 5.775117441981614E+07,
$$EOE